ONEWEB-0683             
1 56719U 23068K   25359.87286978  .00000179  00000+0  44171-3 0  9992
2 56719  87.9012 293.7690 0001589  83.7942 276.3370 13.15546112126634
ONEWEB-0684             
1 56720U 23068L   25359.88079287 -.00000061  00000+0 -19610-3 0  9990
2 56720  87.9013 293.7615 0002161  35.1055 325.0217 13.15548880126464
ONEWEB-0686             
1 56721U 23068M   25360.16256454  .00000048  00000+0  93245-4 0  9997
2 56721  87.9036 263.2620 0001258  69.9338 290.1928 13.15705864128946
ONEWEB-0694             
1 56722U 23068N   25359.78536811 -.00000018  00000+0 -81231-4 0  9993
2 56722  87.9056 263.2675 0001293  88.0837 272.0442 13.16593372128955
ONEWEB-0696             
1 56723U 23068P   25359.83800469  .00000008  00000+0 -12459-4 0  9997
2 56723  87.8999 293.8205 0001926  67.6083 292.5252 13.15546801126574
ONEWEB-0703             
1 56724U 23068Q   25359.84751153 -.00000073  00000+0 -22792-3 0  9997
2 56724  87.9007 293.8014 0002694  63.4953 296.6453 13.15546362126465
ONEWEB-0721             
1 56725U 23068R   25359.87953431  .00000177  00000+0  39026-3 0  9995
2 56725  86.6780 140.8076 0001336 102.3012 257.8270 13.22454786135035
ONEWEB-0015             
1 61594U 24188A   25360.11578583 -.00000467  00000+0 -13539-2 0  9993
2 61594  87.8842  55.5618 0002285 111.2039 248.9333 13.11418502 61777
